{"type": "FeatureCollection", "features": [ {"type": "Feature", "properties": {"norad_id": 66886, "name": "STARLINK-35900", "group": "last-30-days", "lat": -27.396183936805816, "lon": 31.195038758390925, "alt_km": 314.8813410095272, "timestamp": "2025-12-16T15:45:49.734020+00:00", "meta": {"OBJECT_NAME": "STARLINK-35900", "OBJECT_ID": "2025-283J", "EPOCH": "2025-12-15T14:13:20.340192", "MEAN_MOTION": 15.87792328, "ECCENTRICITY": 0.00015012, "INCLINATION": 53.1552, "RA_OF_ASC_NODE": 59.451, "ARG_OF_PERICENTER": 44.9915, "MEAN_ANOMALY": 315.1232, "EPHEMERIS_TYPE": 0, "CLASSIFICATION_TYPE": "U", "NORAD_CAT_ID": 66886, "ELEMENT_SET_NO": 999, "REV_AT_EPOCH": 290, "BSTAR": -0.0017057792, "MEAN_MOTION_DOT": -0.00446751, "MEAN_MOTION_DDOT": 0}, "tle": {"line1": "1 66886U 25283J   25349.59259653 -.00446751  00000+0 -17058-2 0  9992", "line2": "2 66886  53.1552  59.4510 0001501  44.9915 315.1232 15.87792328  2900"}}, "geometry": {"type": "Point", "coordinates": [31.195038758390925, -27.396183936805816]}}, {"type": "Feature", "properties": {"norad_id": 66887, "name": "STARLINK-35925", "group": "last-30-days", "lat": -22.675547188423433, "lon": 35.79396796381996, "alt_km": 307.66293629033044, "timestamp": "2025-12-16T15:45:49.734033+00:00", "meta": {"OBJECT_NAME": "STARLINK-35925", "OBJECT_ID": "2025-283K", "EPOCH": "2025-12-15T21:45:54.959040", "MEAN_MOTION": 15.88032689, "ECCENTRICITY": 0.00012546, "INCLINATION": 53.1552, "RA_OF_ASC_NODE": 57.8549, "ARG_OF_PERICENTER": 12.1464, "MEAN_ANOMALY": 347.9592, "EPHEMERIS_TYPE": 0, "CLASSIFICATION_TYPE": "U", "NORAD_CAT_ID": 66887, "ELEMENT_SET_NO": 999, "REV_AT_EPOCH": 295, "BSTAR": 0.0023111865, "MEAN_MOTION_DOT": 0.00694678, "MEAN_MOTION_DDOT": 0}, "tle": {"line1": "1 66887U 25283K   25349.90688610  .00694678  00000+0  23112-2 0  9996", "line2": "2 66887  53.1552  57.8549 0001254  12.1464 347.9592 15.88032689  2951"}}, "geometry": {"type": "Point", "coordinates": [35.79396796381996, -22.675547188423433]}}, {"type": "Feature", "properties": {"norad_id": 66888, "name": "STARLINK-35919", "group": "last-30-days", "lat": -23.399757813187705, "lon": 35.11827747312388, "alt_km": 314.73266374440936, "timestamp": "2025-12-16T15:45:49.734043+00:00", "meta": {"OBJECT_NAME": "STARLINK-35919", "OBJECT_ID": "2025-283L", "EPOCH": "2025-12-15T12:41:28.057344", "MEAN_MOTION": 15.87997937, "ECCENTRICITY": 0.00010006, "INCLINATION": 53.1552, "RA_OF_ASC_NODE": 59.7638, "ARG_OF_PERICENTER": 85.9749, "MEAN_ANOMALY": 274.1391, "EPHEMERIS_TYPE": 0, "CLASSIFICATION_TYPE": "U", "NORAD_CAT_ID": 66888, "ELEMENT_SET_NO": 999, "REV_AT_EPOCH": 289, "BSTAR": -0.0018154422, "MEAN_MOTION_DOT": -0.0047856, "MEAN_MOTION_DDOT": 0}, "tle": {"line1": "1 66888U 25283L   25349.52879696 -.00478560  00000+0 -18154-2 0  9993", "line2": "2 66888  53.1552  59.7638 0001000  85.9749 274.1391 15.87997937  2891"}}, "geometry": {"type": "Point", "coordinates": [35.11827747312388, -23.399757813187705]}}, {"type": "Feature", "properties": {"norad_id": 66889, "name": "STARLINK-35852", "group": "last-30-days", "lat": -23.49738698860307, "lon": 35.026343363307106, "alt_km": 316.47601169104655, "timestamp": "2025-12-16T15:45:49.734053+00:00", "meta": {"OBJECT_NAME": "STARLINK-35852", "OBJECT_ID": "2025-283M", "EPOCH": "2025-12-15T21:44:49.658784", "MEAN_MOTION": 15.86919956, "ECCENTRICITY": 0.00023707, "INCLINATION": 53.1546, "RA_OF_ASC_NODE": 57.849, "ARG_OF_PERICENTER": 53.2774, "MEAN_ANOMALY": 306.8469, "EPHEMERIS_TYPE": 0, "CLASSIFICATION_TYPE": "U", "NORAD_CAT_ID": 66889, "ELEMENT_SET_NO": 999, "REV_AT_EPOCH": 295, "BSTAR": -0.0020276948, "MEAN_MOTION_DOT": -0.00505329, "MEAN_MOTION_DDOT": 0}, "tle": {"line1": "1 66889U 25283M   25349.90613031 -.00505329  00000+0 -20277-2 0  9998", "line2": "2 66889  53.1546  57.8490 0002370  53.2774 306.8469 15.86919956  2957"}}, "geometry": {"type": "Point", "coordinates": [35.026343363307106, -23.49738698860307]}}, {"type": "Feature", "properties": {"norad_id": 66890, "name": "STARLINK-35885", "group": "last-30-days", "lat": -17.919765024469836, "lon": 40.0055922157152, "alt_km": 308.9973450858679, "timestamp": "2025-12-16T15:45:49.734063+00:00", "meta": {"OBJECT_NAME": "STARLINK-35885", "OBJECT_ID": "2025-283N", "EPOCH": "2025-12-15T21:44:02.722848", "MEAN_MOTION": 15.87705808, "ECCENTRICITY": 0.00021789, "INCLINATION": 53.1551, "RA_OF_ASC_NODE": 57.8457, "ARG_OF_PERICENTER": 43.2715, "MEAN_ANOMALY": 316.8482, "EPHEMERIS_TYPE": 0, "CLASSIFICATION_TYPE": "U", "NORAD_CAT_ID": 66890, "ELEMENT_SET_NO": 999, "REV_AT_EPOCH": 295, "BSTAR": 0.0017263509, "MEAN_MOTION_DOT": 0.00499019, "MEAN_MOTION_DDOT": 0}, "tle": {"line1": "1 66890U 25283N   25349.90558707  .00499019  00000+0  17264-2 0  9996", "line2": "2 66890  53.1551  57.8457 0002178  43.2715 316.8482 15.87705808  2954"}}, "geometry": {"type": "Point", "coordinates": [40.0055922157152, -17.919765024469836]}}, {"type": "Feature", "properties": {"norad_id": 66891, "name": "STARLINK-35855", "group": "last-30-days", "lat": -17.520919577103253, "lon": 40.34370369337853, "alt_km": 313.84872125763104, "timestamp": "2025-12-16T15:45:49.734073+00:00", "meta": {"OBJECT_NAME": "STARLINK-35855", "OBJECT_ID": "2025-283P", "EPOCH": "2025-12-15T14:10:05.360448", "MEAN_MOTION": 15.87856165, "ECCENTRICITY": 0.00014667, "INCLINATION": 53.1553, "RA_OF_ASC_NODE": 59.4357, "ARG_OF_PERICENTER": 43.1248, "MEAN_ANOMALY": 316.9893, "EPHEMERIS_TYPE": 0, "CLASSIFICATION_TYPE": "U", "NORAD_CAT_ID": 66891, "ELEMENT_SET_NO": 999, "REV_AT_EPOCH": 290, "BSTAR": -0.0018190174, "MEAN_MOTION_DOT": -0.00476309, "MEAN_MOTION_DDOT": 0}, "tle": {"line1": "1 66891U 25283P   25349.59033982 -.00476309  00000+0 -18190-2 0  9993", "line2": "2 66891  53.1553  59.4357 0001466  43.1248 316.9893 15.87856165  2908"}}, "geometry": {"type": "Point", "coordinates": [40.34370369337853, -17.520919577103253]}}, {"type": "Feature", "properties": {"norad_id": 66892, "name": "STARLINK-35883", "group": "last-30-days", "lat": -13.248461764799952, "lon": 43.85760056919184, "alt_km": 308.24600568499045, "timestamp": "2025-12-16T15:45:49.734260+00:00", "meta": {"OBJECT_NAME": "STARLINK-35883", "OBJECT_ID": "2025-283Q", "EPOCH": "2025-12-15T21:42:38.889792", "MEAN_MOTION": 15.878867, "ECCENTRICITY": 0.0001024, "INCLINATION": 53.1548, "RA_OF_ASC_NODE": 57.8391, "ARG_OF_PERICENTER": 24.2279, "MEAN_ANOMALY": 335.8795, "EPHEMERIS_TYPE": 0, "CLASSIFICATION_TYPE": "U", "NORAD_CAT_ID": 66892, "ELEMENT_SET_NO": 999, "REV_AT_EPOCH": 295, "BSTAR": 0.0015891041, "MEAN_MOTION_DOT": 0.00461452, "MEAN_MOTION_DDOT": 0}, "tle": {"line1": "1 66892U 25283Q   25349.90461678  .00461452  00000+0  15891-2 0  9992", "line2": "2 66892  53.1548  57.8391 0001024  24.2279 335.8795 15.87886700  2951"}}, "geometry": {"type": "Point", "coordinates": [43.85760056919184, -13.248461764799952]}}, {"type": "Feature", "properties": {"norad_id": 66893, "name": "STARLINK-36033", "group": "last-30-days", "lat": -14.259066425328589, "lon": 43.042761803922524, "alt_km": 312.0306048792636, "timestamp": "2025-12-16T15:45:49.734272+00:00", "meta": {"OBJECT_NAME": "STARLINK-36033", "OBJECT_ID": "2025-283R", "EPOCH": "2025-12-15T21:42:14.059296", "MEAN_MOTION": 15.87134851, "ECCENTRICITY": 0.00064652, "INCLINATION": 53.1549, "RA_OF_ASC_NODE": 57.8368, "ARG_OF_PERICENTER": 58.95, "MEAN_ANOMALY": 301.2159, "EPHEMERIS_TYPE": 0, "CLASSIFICATION_TYPE": "U", "NORAD_CAT_ID": 66893, "ELEMENT_SET_NO": 999, "REV_AT_EPOCH": 295, "BSTAR": 4.2254478e-05, "MEAN_MOTION_DOT": 0.00010479, "MEAN_MOTION_DDOT": 0}, "tle": {"line1": "1 66893U 25283R   25349.90432939  .00010479  00000+0  42254-4 0  9995", "line2": "2 66893  53.1549  57.8368 0006465  58.9500 301.2159 15.87134851  2956"}}, "geometry": {"type": "Point", "coordinates": [43.042761803922524, -14.259066425328589]}}, {"type": "Feature", "properties": {"norad_id": 66894, "name": "STARLINK-35718", "group": "last-30-days", "lat": -11.081656205829695, "lon": 45.57487522216699, "alt_km": 313.082342898826, "timestamp": "2025-12-16T15:45:49.734287+00:00", "meta": {"OBJECT_NAME": "STARLINK-35718", "OBJECT_ID": "2025-283S", "EPOCH": "2025-12-15T14:08:02.213664", "MEAN_MOTION": 15.87892721, "ECCENTRICITY": 0.00014965, "INCLINATION": 53.1553, "RA_OF_ASC_NODE": 59.4259, "ARG_OF_PERICENTER": 43.2215, "MEAN_ANOMALY": 316.8928, "EPHEMERIS_TYPE": 0, "CLASSIFICATION_TYPE": "U", "NORAD_CAT_ID": 66894, "ELEMENT_SET_NO": 999, "REV_AT_EPOCH": 290, "BSTAR": -0.00189, "MEAN_MOTION_DOT": -0.00494762, "MEAN_MOTION_DDOT": 0}, "tle": {"line1": "1 66894U 25283S   25349.58891451 -.00494762  00000+0 -18900-2 0  9990", "line2": "2 66894  53.1553  59.4259 0001496  43.2215 316.8928 15.87892721  2906"}}, "geometry": {"type": "Point", "coordinates": [45.57487522216699, -11.081656205829695]}}, {"type": "Feature", "properties": {"norad_id": 66895, "name": "STARLINK-35971", "group": "last-30-days", "lat": -6.629844387302935, "lon": 49.007241349839035, "alt_km": 312.1143504109914, "timestamp": "2025-12-16T15:45:49.734297+00:00", "meta": {"OBJECT_NAME": "STARLINK-35971", "OBJECT_ID": "2025-283T", "EPOCH": "2025-12-15T14:06:42.643584", "MEAN_MOTION": 15.87943895, "ECCENTRICITY": 0.00013371, "INCLINATION": 53.1546, "RA_OF_ASC_NODE": 59.4185, "ARG_OF_PERICENTER": 36.1404, "MEAN_ANOMALY": 323.9712, "EPHEMERIS_TYPE": 0, "CLASSIFICATION_TYPE": "U", "NORAD_CAT_ID": 66895, "ELEMENT_SET_NO": 999, "REV_AT_EPOCH": 290, "BSTAR": -0.0017557515, "MEAN_MOTION_DOT": -0.00462473, "MEAN_MOTION_DDOT": 0}, "tle": {"line1": "1 66895U 25283T   25349.58799356 -.00462473  00000+0 -17558-2 0  9994", "line2": "2 66895  53.1546  59.4185 0001337  36.1404 323.9712 15.87943895  2901"}}, "geometry": {"type": "Point", "coordinates": [49.007241349839035, -6.629844387302935]}}]}